[{"OBJECT_NAME":"STARLINK-2140","OBJECT_ID":"2021-017J","EPOCH":"2026-03-10T00:00:02.999808","MEAN_MOTION":15.16976713,"ECCENTRICITY":0.00018722,"INCLINATION":53.0978,"RA_OF_ASC_NODE":214.9627,"ARG_OF_PERICENTER":95.1746,"MEAN_ANOMALY":91.6556,"EPHEMERIS_TYPE":0,"CLASSIFICATION_TYPE":"U","NORAD_CAT_ID":47730,"ELEMENT_SET_NO":999,"REV_AT_EPOCH":579,"BSTAR":0.0030213884,"MEAN_MOTION_DOT":0.00060583,"MEAN_MOTION_DDOT":0},{"OBJECT_NAME":"FLOCK 4H-29","OBJECT_ID":"2025-276BU","EPOCH":"2026-03-09T18:19:22.672704","MEAN_MOTION":15.1849364,"ECCENTRICITY":0.00036497,"INCLINATION":97.4237,"RA_OF_ASC_NODE":143.9355,"ARG_OF_PERICENTER":34.6644,"MEAN_ANOMALY":325.4828,"EPHEMERIS_TYPE":0,"CLASSIFICATION_TYPE":"U","NORAD_CAT_ID":66732,"ELEMENT_SET_NO":999,"REV_AT_EPOCH":1532,"BSTAR":0.00039233753,"MEAN_MOTION_DOT":8.028e-5,"MEAN_MOTION_DDOT":0}]
